CCSDS_OMM_VERS = 2.0
CREATION_DATE  = 
ORIGINATOR     = 

OBJECT_NAME    = COSMOS 2058
OBJECT_ID      = 1990-010A
CENTER_NAME    = EARTH
REF_FRAME      = TEME
TIME_SYSTEM    = UTC
MEAN_ELEMENT_THEORY = SGP/SGP4

EPOCH          = 2026-04-05T06:17:20.200704
MEAN_MOTION    = 15.11596258
ECCENTRICITY   = .00081497
INCLINATION    = 82.4730
RA_OF_ASC_NODE = 21.2470
ARG_OF_PERICENTER = 235.6862
MEAN_ANOMALY   = 124.3598

EPHEMERIS_TYPE = 0
CLASSIFICATION_TYPE = U
NORAD_CAT_ID   = 20465
ELEMENT_SET_NO = 999
REV_AT_EPOCH   = 94625
BSTAR          = .35895993E-3
MEAN_MOTION_DOT = .6125E-4
MEAN_MOTION_DDOT = 0

CCSDS_OMM_VERS = 2.0
CREATION_DATE  = 
ORIGINATOR     = 

OBJECT_NAME    = SL-14 R/B
OBJECT_ID      = 1990-010B
CENTER_NAME    = EARTH
REF_FRAME      = TEME
TIME_SYSTEM    = UTC
MEAN_ELEMENT_THEORY = SGP/SGP4

EPOCH          = 2026-04-04T22:09:45.285120
MEAN_MOTION    = 14.83596455
ECCENTRICITY   = .00190665
INCLINATION    = 82.5007
RA_OF_ASC_NODE = 242.7404
ARG_OF_PERICENTER = 209.7617
MEAN_ANOMALY   = 150.2515

EPHEMERIS_TYPE = 0
CLASSIFICATION_TYPE = U
NORAD_CAT_ID   = 20466
ELEMENT_SET_NO = 999
REV_AT_EPOCH   = 93237
BSTAR          = .81097806E-4
MEAN_MOTION_DOT = .694E-5
MEAN_MOTION_DDOT = 0

CCSDS_OMM_VERS = 2.0
CREATION_DATE  = 
ORIGINATOR     = 

OBJECT_NAME    = SL-14 R/B
OBJECT_ID      = 1990-018B
CENTER_NAME    = EARTH
REF_FRAME      = TEME
TIME_SYSTEM    = UTC
MEAN_ELEMENT_THEORY = SGP/SGP4

EPOCH          = 2026-04-05T07:17:42.425664
MEAN_MOTION    = 14.82173207
ECCENTRICITY   = .00163446
INCLINATION    = 82.5244
RA_OF_ASC_NODE = 198.2203
ARG_OF_PERICENTER = 9.6350
MEAN_ANOMALY   = 350.5175

EPHEMERIS_TYPE = 0
CLASSIFICATION_TYPE = U
NORAD_CAT_ID   = 20511
ELEMENT_SET_NO = 999
REV_AT_EPOCH   = 92652
BSTAR          = .76229071E-4
MEAN_MOTION_DOT = .632E-5
MEAN_MOTION_DDOT = 0

CCSDS_OMM_VERS = 2.0
CREATION_DATE  = 
ORIGINATOR     = 

OBJECT_NAME    = HST
OBJECT_ID      = 1990-037B
CENTER_NAME    = EARTH
REF_FRAME      = TEME
TIME_SYSTEM    = UTC
MEAN_ELEMENT_THEORY = SGP/SGP4

EPOCH          = 2026-04-04T15:32:47.128416
MEAN_MOTION    = 15.29923140
ECCENTRICITY   = .0002193
INCLINATION    = 28.4724
RA_OF_ASC_NODE = 222.8665
ARG_OF_PERICENTER = 61.0619
MEAN_ANOMALY   = 299.0197

EPHEMERIS_TYPE = 0
CLASSIFICATION_TYPE = U
NORAD_CAT_ID   = 20580
ELEMENT_SET_NO = 999
REV_AT_EPOCH   = 77729
BSTAR          = .36493E-3
MEAN_MOTION_DOT = .11124E-3
MEAN_MOTION_DDOT = 0

CCSDS_OMM_VERS = 2.0
CREATION_DATE  = 
ORIGINATOR     = 

OBJECT_NAME    = SL-16 R/B
OBJECT_ID      = 1990-046B
CENTER_NAME    = EARTH
REF_FRAME      = TEME
TIME_SYSTEM    = UTC
MEAN_ELEMENT_THEORY = SGP/SGP4

EPOCH          = 2026-04-04T20:28:31.281312
MEAN_MOTION    = 14.15019317
ECCENTRICITY   = .00165697
INCLINATION    = 70.9988
RA_OF_ASC_NODE = 242.9608
ARG_OF_PERICENTER = 265.7039
MEAN_ANOMALY   = 94.2190

EPHEMERIS_TYPE = 0
CLASSIFICATION_TYPE = U
NORAD_CAT_ID   = 20625
ELEMENT_SET_NO = 999
REV_AT_EPOCH   = 85209
BSTAR          = .28971777E-4
MEAN_MOTION_DOT = .8E-7
MEAN_MOTION_DDOT = 0

CCSDS_OMM_VERS = 2.0
CREATION_DATE  = 
ORIGINATOR     = 

OBJECT_NAME    = COSMOS 2084
OBJECT_ID      = 1990-055A
CENTER_NAME    = EARTH
REF_FRAME      = TEME
TIME_SYSTEM    = UTC
MEAN_ELEMENT_THEORY = SGP/SGP4

EPOCH          = 2026-04-05T03:41:10.819680
MEAN_MOTION    = 15.05819512
ECCENTRICITY   = .00128421
INCLINATION    = 62.7898
RA_OF_ASC_NODE = 245.3050
ARG_OF_PERICENTER = 199.2361
MEAN_ANOMALY   = 160.8256

EPHEMERIS_TYPE = 0
CLASSIFICATION_TYPE = U
NORAD_CAT_ID   = 20663
ELEMENT_SET_NO = 999
REV_AT_EPOCH   = 94030
BSTAR          = .30296587E-3
MEAN_MOTION_DOT = .4224E-4
MEAN_MOTION_DDOT = 0

CCSDS_OMM_VERS = 2.0
CREATION_DATE  = 
ORIGINATOR     = 

OBJECT_NAME    = SL-6 R/B(2)
OBJECT_ID      = 1990-055D
CENTER_NAME    = EARTH
REF_FRAME      = TEME
TIME_SYSTEM    = UTC
MEAN_ELEMENT_THEORY = SGP/SGP4

EPOCH          = 2026-04-05T04:08:33.242208
MEAN_MOTION    = 15.03730678
ECCENTRICITY   = .00291399
INCLINATION    = 62.7826
RA_OF_ASC_NODE = 163.7831
ARG_OF_PERICENTER = 352.9388
MEAN_ANOMALY   = 7.1296

EPHEMERIS_TYPE = 0
CLASSIFICATION_TYPE = U
NORAD_CAT_ID   = 20666
ELEMENT_SET_NO = 999
REV_AT_EPOCH   = 94217
BSTAR          = .21118047E-3
MEAN_MOTION_DOT = .2735E-4
MEAN_MOTION_DDOT = 0

CCSDS_OMM_VERS = 2.0
CREATION_DATE  = 
ORIGINATOR     = 

OBJECT_NAME    = SL-8 R/B
OBJECT_ID      = 1990-078B
CENTER_NAME    = EARTH
REF_FRAME      = TEME
TIME_SYSTEM    = UTC
MEAN_ELEMENT_THEORY = SGP/SGP4

EPOCH          = 2026-04-05T07:29:55.273920
MEAN_MOTION    = 14.89863070
ECCENTRICITY   = .03573922
INCLINATION    = 82.9045
RA_OF_ASC_NODE = 227.3495
ARG_OF_PERICENTER = 284.1354
MEAN_ANOMALY   = 72.0402

EPHEMERIS_TYPE = 0
CLASSIFICATION_TYPE = U
NORAD_CAT_ID   = 20775
ELEMENT_SET_NO = 999
REV_AT_EPOCH   = 81326
BSTAR          = .43400832E-3
MEAN_MOTION_DOT = .1466E-3
MEAN_MOTION_DDOT = 0

CCSDS_OMM_VERS = 2.0
CREATION_DATE  = 
ORIGINATOR     = 

OBJECT_NAME    = SL-8 R/B
OBJECT_ID      = 1991-006B
CENTER_NAME    = EARTH
REF_FRAME      = TEME
TIME_SYSTEM    = UTC
MEAN_ELEMENT_THEORY = SGP/SGP4

EPOCH          = 2026-04-05T06:47:32.214336
MEAN_MOTION    = 13.77498855
ECCENTRICITY   = .00214066
INCLINATION    = 82.9433
RA_OF_ASC_NODE = 150.2735
ARG_OF_PERICENTER = 323.6550
MEAN_ANOMALY   = 102.8029

EPHEMERIS_TYPE = 0
CLASSIFICATION_TYPE = U
NORAD_CAT_ID   = 21088
ELEMENT_SET_NO = 999
REV_AT_EPOCH   = 76773
BSTAR          = .10606899E-3
MEAN_MOTION_DOT = .121E-5
MEAN_MOTION_DDOT = 0

CCSDS_OMM_VERS = 2.0
CREATION_DATE  = 
ORIGINATOR     = 

OBJECT_NAME    = OKEAN-3
OBJECT_ID      = 1991-039A
CENTER_NAME    = EARTH
REF_FRAME      = TEME
TIME_SYSTEM    = UTC
MEAN_ELEMENT_THEORY = SGP/SGP4

EPOCH          = 2026-04-05T01:49:55.409664
MEAN_MOTION    = 15.04972348
ECCENTRICITY   = .00129074
INCLINATION    = 82.5150
RA_OF_ASC_NODE = 311.2743
ARG_OF_PERICENTER = 239.2038
MEAN_ANOMALY   = 120.7918

EPHEMERIS_TYPE = 0
CLASSIFICATION_TYPE = U
NORAD_CAT_ID   = 21397
ELEMENT_SET_NO = 999
REV_AT_EPOCH   = 86900
BSTAR          = .30333773E-3
MEAN_MOTION_DOT = .4334E-4
MEAN_MOTION_DDOT = 0

CCSDS_OMM_VERS = 2.0
CREATION_DATE  = 
ORIGINATOR     = 

OBJECT_NAME    = COSMOS 2151
OBJECT_ID      = 1991-042A
CENTER_NAME    = EARTH
REF_FRAME      = TEME
TIME_SYSTEM    = UTC
MEAN_ELEMENT_THEORY = SGP/SGP4

EPOCH          = 2026-04-05T07:07:50.218464
MEAN_MOTION    = 15.00231990
ECCENTRICITY   = .00116633
INCLINATION    = 82.4964
RA_OF_ASC_NODE = 58.0027
ARG_OF_PERICENTER = 337.8762
MEAN_ANOMALY   = 22.1957

EPHEMERIS_TYPE = 0
CLASSIFICATION_TYPE = U
NORAD_CAT_ID   = 21422
ELEMENT_SET_NO = 999
REV_AT_EPOCH   = 86718
BSTAR          = .26881673E-3
MEAN_MOTION_DOT = .3392E-4
MEAN_MOTION_DDOT = 0

CCSDS_OMM_VERS = 2.0
CREATION_DATE  = 
ORIGINATOR     = 

OBJECT_NAME    = SL-14 R/B
OBJECT_ID      = 1991-042B
CENTER_NAME    = EARTH
REF_FRAME      = TEME
TIME_SYSTEM    = UTC
MEAN_ELEMENT_THEORY = SGP/SGP4

EPOCH          = 2026-04-05T07:05:01.873248
MEAN_MOTION    = 14.81858560
ECCENTRICITY   = .00178297
INCLINATION    = 82.4961
RA_OF_ASC_NODE = 195.2405
ARG_OF_PERICENTER = 149.5691
MEAN_ANOMALY   = 210.6562

EPHEMERIS_TYPE = 0
CLASSIFICATION_TYPE = U
NORAD_CAT_ID   = 21423
ELEMENT_SET_NO = 999
REV_AT_EPOCH   = 85701
BSTAR          = .79646516E-4
MEAN_MOTION_DOT = .655E-5
MEAN_MOTION_DDOT = 0

